H1 CPF  1  DGF 2022 03 18 11  5771 larets     NONE      
H2   304206 5557    27944 2022 03 18 00 00 00 2022 03 25 00 00 00    30 1 1  0 0 0
H5  0.0650
H9
10 0 59658  54000.000000  0      -1702084.812       1423111.465       6700663.161
10 0 59658  54030.000000  0      -1486337.894       1381794.620       6760019.763
10 0 59658  54060.000000  0      -1269274.832       1338134.493       6812494.292
10 0 59658  54090.000000  0      -1051125.086       1292169.883       6858033.014
10 0 59658  54120.000000  0       -832119.046       1243942.918       6896589.189
10 0 59658  54150.000000  0       -612487.796       1193499.016       6928123.124
10 0 59658  54180.000000  0       -392462.867       1140886.843       6952602.209
10 0 59658  54210.000000  0       -172275.996       1086158.268       6970000.953
10 0 59658  54240.000000  0         47841.113       1029368.311       6980301.009
10 0 59658  54270.000000  0        267657.036        970575.090       6983491.196
10 0 59658  54300.000000  0        486940.866        909839.764       6979567.512
10 0 59658  54330.000000  0        705462.457        847226.470       6968533.139
10 0 59658  54360.000000  0        922992.665        782802.255       6950398.446
10 0 59658  54390.000000  0       1139303.582        716637.011       6925180.982
10 0 59658  54420.000000  0       1354168.780        648803.393       6892905.464
10 0 59658  54450.000000  0       1567363.543        579376.747       6853603.752
10 0 59658  54480.000000  0       1778665.104        508435.027       6807314.830
10 0 59658  54510.000000  0       1987852.875        436058.710       6754084.769
10 0 59658  54540.000000  0       2194708.682        362330.706       6693966.693
10 0 59658  54570.000000  0       2399016.994        287336.266       6627020.729
10 0 59658  54600.000000  0       2600565.151        211162.883       6553313.956
10 0 59658  54630.000000  0       2799143.590        133900.197       6472920.344
10 0 59658  54660.000000  0       2994546.069         55639.888       6385920.680
10 0 59658  54690.000000  0       3186569.876        -23524.427       6292402.499
10 0 59658  54720.000000  0       3375016.051       -103497.307       6192460.001
10 0 59658  54750.000000  0       3559689.594       -184181.594       6086193.964
10 0 59658  54780.000000  0       3740399.675       -265478.533       5973711.651
10 0 59658  54810.000000  0       3916959.836       -347287.889       5855126.705
10 0 59658  54840.000000  0       4089188.186       -429508.067       5730559.043
10 0 59658  54870.000000  0       4256907.604       -512036.233       5600134.744
10 0 59658  54900.000000  0       4419945.918       -594768.445       5463985.926
10 0 59658  54930.000000  0       4578136.104       -677599.777       5322250.622
10 0 59658  54960.000000  0       4731316.455       -760424.448       5175072.646
10 0 59658  54990.000000  0       4879330.767       -843135.959       5022601.444
10 0 59658  55020.000000  0       5022028.496       -925627.222       4864991.954
10 0 59658  55050.000000  0       5159264.929      -1007790.693       4702404.448
10 0 59658  55080.000000  0       5290901.332      -1089518.515       4535004.380
10 0 59658  55110.000000  0       5416805.114      -1170702.653       4362962.218
10 0 59658  55140.000000  0       5536849.964      -1251235.035       4186453.274
10 0 59658  55170.000000  0       5650915.990      -1331007.695       4005657.522
10 0 59658  55200.000000  0       5758889.852      -1409912.907       3820759.415
10 0 59658  55230.000000  0       5860664.882      -1487843.333       3631947.700
10 0 59658  55260.000000  0       5956141.199      -1564692.158       3439415.225
10 0 59658  55290.000000  0       6045225.820      -1640353.241       3243358.735
10 0 59658  55320.000000  0       6127832.756      -1714721.249       3043978.675
10 0 59658  55350.000000  0       6203883.110      -1787691.804       2841478.980
10 0 59658  55380.000000  0       6273305.153      -1859161.619       2636066.859
10 0 59658  55410.000000  0       6336034.406      -1929028.643       2427952.584
10 0 59658  55440.000000  0       6392013.705      -1997192.199       2217349.270
10 0 59658  55470.000000  0       6441193.257      -2063553.121       2004472.647
10 0 59658  55500.000000  0       6483530.698      -2128013.889       1789540.839
10 0 59658  55530.000000  0       6518991.130      -2190478.771       1572774.127
10 0 59658  55560.000000  0       6547547.154      -2250853.952       1354394.721
10 0 59658  55590.000000  0       6569178.895      -2309047.669       1134626.515
10 0 59658  55620.000000  0       6583874.014      -2364970.341        913694.855
10 0 59658  55650.000000  0       6591627.708      -2418534.697        691826.296
10 0 59658  55680.000000  0       6592442.715      -2469655.895        469248.363
10 0 59658  55710.000000  0       6586329.296      -2518251.646        246189.308
10 0 59658  55740.000000  0       6573305.216      -2564242.334         22877.863
10 0 59658  55770.000000  0       6553395.713      -2607551.127       -200457.001
10 0 59658  55800.000000  0       6526633.456      -2648104.095       -423586.319
10 0 59658  55830.000000  0       6493058.500      -2685830.314       -646281.383
10 0 59658  55860.000000  0       6452718.218      -2720661.978       -868313.981
10 0 59658  55890.000000  0       6405667.241      -2752534.492      -1089456.641
10 0 59658  55920.000000  0       6351967.377      -2781386.575      -1309482.874
10 0 59658  55950.000000  0       6291687.528      -2807160.351      -1528167.413
10 0 59658  55980.000000  0       6224903.597      -2829801.435      -1745286.449
10 0 59658  56010.000000  0       6151698.390      -2849259.020      -1960617.868
10 0 59658  56040.000000  0       6072161.506      -2865485.952      -2173941.489
10 0 59658  56070.000000  0       5986389.221      -2878438.809      -2385039.288
10 0 59658  56100.000000  0       5894484.366      -2888077.970      -2593695.634
10 0 59658  56130.000000  0       5796556.192      -2894367.677      -2799697.508
10 0 59658  56160.000000  0       5692720.236      -2897276.099      -3002834.728
10 0 59658  56190.000000  0       5583098.171      -2896775.386      -3202900.162
10 0 59658  56220.000000  0       5467817.660      -2892841.722      -3399689.943
10 0 59658  56250.000000  0       5347012.198      -2885455.371      -3593003.679
10 0 59658  56280.000000  0       5220820.945      -2874600.717      -3782644.657
10 0 59658  56310.000000  0       5089388.564      -2860266.299      -3968420.045
10 0 59658  56340.000000  0       4952865.037      -2842444.843      -4150141.091
10 0 59658  56370.000000  0       4811405.485      -2821133.287      -4327623.311
10 0 59658  56400.000000  0       4665169.985      -2796332.801      -4500686.672
10 0 59658  56430.000000  0       4514323.370      -2768048.798      -4669155.775
10 0 59658  56460.000000  0       4359035.041      -2736290.947      -4832860.026
10 0 59658  56490.000000  0       4199478.762      -2701073.176      -4991633.801
10 0 59658  56520.000000  0       4035832.457      -2662413.668      -5145316.607
10 0 59658  56550.000000  0       3868278.007      -2620334.857      -5293753.239
10 0 59658  56580.000000  0       3697001.036      -2574863.416      -5436793.924
10 0 59658  56610.000000  0       3522190.704      -2526030.242      -5574294.463
10 0 59658  56640.000000  0       3344039.493      -2473870.434      -5706116.372
10 0 59658  56670.000000  0       3162742.991      -2418423.269      -5832127.010
10 0 59658  56700.000000  0       2978499.675      -2359732.172      -5952199.709
10 0 59658  56730.000000  0       2791510.689      -2297844.681      -6066213.890
10 0 59658  56760.000000  0       2601979.620      -2232812.407      -6174055.180
10 0 59658  56790.000000  0       2410112.273      -2164690.986      -6275615.520
10 0 59658  56820.000000  0       2216116.442      -2093540.032      -6370793.263
10 0 59658  56850.000000  0       2020201.683      -2019423.074      -6459493.265
10 0 59658  56880.000000  0       1822579.085      -1942407.505      -6541626.974
10 0 59658  56910.000000  0       1623461.040      -1862564.508      -6617112.501
10 0 59658  56940.000000  0       1423061.017      -1779968.995      -6685874.695
10 0 59658  56970.000000  0       1221593.335      -1694699.533      -6747845.206
10 0 59658  57000.000000  0       1019272.934      -1606838.269      -6802962.547
10 0 59658  57030.000000  0        816315.152      -1516470.850      -6851172.146
10 0 59658  57060.000000  0        612935.492      -1423686.341      -6892426.396
10 0 59658  57090.000000  0        409349.395      -1328577.127      -6926684.693
10 0 59658  57120.000000  0        205772.017      -1231238.829      -6953913.461
10 0 59658  57150.000000  0          2418.009      -1131770.202      -6974086.186
10 0 59658  57180.000000  0       -200498.706      -1030273.044      -6987183.432
10 0 59658  57210.000000  0       -402765.152       -926852.085      -6993192.863
10 0 59658  57240.000000  0       -604169.523       -821614.886      -6992109.249
10 0 59658  57270.000000  0       -804501.404       -714671.723      -6983934.466
10 0 59658  57300.000000  0      -1003551.982       -606135.474      -6968677.492
10 0 59658  57330.000000  0      -1201114.263       -496121.500      -6946354.394
10 0 59658  57360.000000  0      -1396983.283       -384747.523      -6916988.307
10 0 59658  57390.000000  0      -1590956.313       -272133.507      -6880609.412
10 0 59658  57420.000000  0      -1782833.067       -158401.525      -6837254.904
10 0 59658  57450.000000  0      -1972415.903        -43675.636      -6786968.953
10 0 59658  57480.000000  0      -2159510.022         71918.253      -6729802.663
10 0 59658  57510.000000  0      -2343923.661        188252.515      -6665814.022
10 0 59658  57540.000000  0      -2525468.291        305197.947      -6595067.852
10 0 59658  57570.000000  0      -2703958.801        422623.908      -6517635.741
99
